[{"OBJECT_NAME":"ONEWEB-0701","OBJECT_ID":"2024-188P","EPOCH":"2026-05-02T00:53:57.958368","MEAN_MOTION":13.10372101,"ECCENTRICITY":0.0001649,"INCLINATION":87.8851,"RA_OF_ASC_NODE":45.4475,"ARG_OF_PERICENTER":51.2218,"MEAN_ANOMALY":308.9056,"EPHEMERIS_TYPE":0,"CLASSIFICATION_TYPE":"U","NORAD_CAT_ID":61607,"ELEMENT_SET_NO":999,"REV_AT_EPOCH":7726,"BSTAR":-0.0016833000000000002,"MEAN_MOTION_DOT":-5.75e-06,"MEAN_MOTION_DDOT":0.0},{"OBJECT_NAME":"ONEWEB-0702","OBJECT_ID":"2024-188Q","EPOCH":"2026-05-02T00:18:06.033312","MEAN_MOTION":13.11415577,"ECCENTRICITY":0.0001237,"INCLINATION":87.8945,"RA_OF_ASC_NODE":30.1609,"ARG_OF_PERICENTER":46.3978,"MEAN_ANOMALY":313.7253,"EPHEMERIS_TYPE":0,"CLASSIFICATION_TYPE":"U","NORAD_CAT_ID":61608,"ELEMENT_SET_NO":999,"REV_AT_EPOCH":7843,"BSTAR":-0.001126,"MEAN_MOTION_DOT":-3.86e-06,"MEAN_MOTION_DDOT":0.0},{"OBJECT_NAME":"ONEWEB-0704","OBJECT_ID":"2024-188R","EPOCH":"2026-05-02T04:17:09.362976","MEAN_MOTION":13.10368687,"ECCENTRICITY":0.0001022,"INCLINATION":87.887,"RA_OF_ASC_NODE":45.4034,"ARG_OF_PERICENTER":49.3222,"MEAN_ANOMALY":310.7994,"EPHEMERIS_TYPE":0,"CLASSIFICATION_TYPE":"U","NORAD_CAT_ID":61609,"ELEMENT_SET_NO":999,"REV_AT_EPOCH":7726,"BSTAR":8.669500000000001e-05,"MEAN_MOTION_DOT":4.3e-07,"MEAN_MOTION_DDOT":0.0},{"OBJECT_NAME":"ONEWEB-0705","OBJECT_ID":"2024-188S","EPOCH":"2026-05-02T04:24:19.252224","MEAN_MOTION":13.10367975,"ECCENTRICITY":8.87e-05,"INCLINATION":87.8861,"RA_OF_ASC_NODE":45.4103,"ARG_OF_PERICENTER":106.8423,"MEAN_ANOMALY":253.2802,"EPHEMERIS_TYPE":0,"CLASSIFICATION_TYPE":"U","NORAD_CAT_ID":61610,"ELEMENT_SET_NO":999,"REV_AT_EPOCH":6943,"BSTAR":-0.00054244,"MEAN_MOTION_DOT":-1.77e-06,"MEAN_MOTION_DDOT":0.0},{"OBJECT_NAME":"ONEWEB-0706","OBJECT_ID":"2024-188T","EPOCH":"2026-05-02T00:22:54.914304","MEAN_MOTION":13.103707,"ECCENTRICITY":0.0001293,"INCLINATION":87.8852,"RA_OF_ASC_NODE":45.4519,"ARG_OF_PERICENTER":69.5531,"MEAN_ANOMALY":290.5735,"EPHEMERIS_TYPE":0,"CLASSIFICATION_TYPE":"U","NORAD_CAT_ID":61611,"ELEMENT_SET_NO":999,"REV_AT_EPOCH":7733,"BSTAR":0.0011491,"MEAN_MOTION_DOT":4.14e-06,"MEAN_MOTION_DDOT":0.0},{"OBJECT_NAME":"ONEWEB-0707","OBJECT_ID":"2024-188U","EPOCH":"2026-05-02T04:12:23.010912","MEAN_MOTION":13.10370109,"ECCENTRICITY":0.0001354,"INCLINATION":87.8857,"RA_OF_ASC_NODE":45.4117,"ARG_OF_PERICENTER":68.0344,"MEAN_ANOMALY":292.0927,"EPHEMERIS_TYPE":0,"CLASSIFICATION_TYPE":"U","NORAD_CAT_ID":61612,"ELEMENT_SET_NO":999,"REV_AT_EPOCH":7729,"BSTAR":0.00064442,"MEAN_MOTION_DOT":2.38e-06,"MEAN_MOTION_DDOT":0.0},{"OBJECT_NAME":"ONEWEB-0708","OBJECT_ID":"2024-188V","EPOCH":"2026-05-02T00:58:45.004224","MEAN_MOTION":13.10372757,"ECCENTRICITY":0.0001573,"INCLINATION":87.8852,"RA_OF_ASC_NODE":45.4607,"ARG_OF_PERICENTER":95.4427,"MEAN_ANOMALY":264.688,"EPHEMERIS_TYPE":0,"CLASSIFICATION_TYPE":"U","NORAD_CAT_ID":61613,"ELEMENT_SET_NO":999,"REV_AT_EPOCH":7725,"BSTAR":-0.0017796,"MEAN_MOTION_DOT":-6.09e-06,"MEAN_MOTION_DDOT":0.0}]